#aV2009  1 13  0  0   .00000000      96 DD+AD WGS84 FIT  NGA
## 1514 172800.00000000   900.00000000 54844  .0000000000000
+   31     2  3  4  5  6  7  8  9 10 11 12 13 14 15 16 17 18
+         19 20 21 22 23 24 25 26 27 28 29 30 31 32  0  0  0
+          0  0  0  0  0  0  0  0  0  0  0  0  0  0  0  0  0
+          0  0  0  0  0  0  0  0  0  0  0  0  0  0  0  0  0
+          0  0  0  0  0  0  0  0  0  0  0  0  0  0  0  0  0
++         0  0  0  0  0  0  0  0  0  0  0  0  0  0  0  0  0
++         0  0  0  0  0  0  0  0  0  0  0  0  0  0  0  0  0
++         0  0  0  0  0  0  0  0  0  0  0  0  0  0  0  0  0
++         0  0  0  0  0  0  0  0  0  0  0  0  0  0  0  0  0
++         0  0  0  0  0  0  0  0  0  0  0  0  0  0  0  0  0
%c cc cc ccc ccc cccc cccc cccc cccc ccccc ccccc ccccc ccccc
%c cc cc ccc ccc cccc cccc cccc cccc ccccc ccccc ccccc ccccc
%f  0.0000000  0.000000000  0.00000000000  0.000000000000000
%f  0.0000000  0.000000000  0.00000000000  0.000000000000000
%i    0    0    0    0      0      0      0      0         0
%i    0    0    0    0      0      0      0      0         0
/*      NGA, ST. LOUIS,MO.                                  
/*   EPHEMERIS COMPUTED FROM  3 DAYS OF DATA                
/* CCCCCCCCCCCCCCCCCCCCCCCCCCCCCCCCCCCCCCCCCCCCCCCCCCCCCCCCC
/* CCCCCCCCCCCCCCCCCCCCCCCCCCCCCCCCCCCCCCCCCCCCCCCCCCCCCCCCC
*  2009  1 13 11 15   .00000000                                                 
P  2 -18768.321216   5434.389947 -17938.445401    161.859120                    
V  2  10256.852675 -20398.768227 -17414.908453      -.018500                    
P  3  17896.865341    494.481628  19421.243658    338.284889                    
V  3  12920.134329  21840.943206 -11921.062343       .053157                    
P  4 -13286.108088  -8380.843919 -21543.308352   -298.256573                    
V  4  14896.580678 -22681.921588      5.682752      -.133921                    
P  5 -10186.321530  14825.137171 -19799.595262   -537.220780                    
V  5 -24631.270090   -134.404118  12885.301299      -.584625                    
P  6  18685.921413   5247.963412  18327.688203     93.714407                    
V  6   9877.872867  20831.796513 -16175.749249      -.121224                    
P  7   4161.601736 -22870.798661  12730.947921     23.349437                    
V  7  10638.837338 -12456.953183 -25926.078060      -.001628                    
P  8  -6426.105546 -14759.367209  20958.981640   -186.178350                    
V  8  16413.064999 -21200.463378 -10349.941443      -.015839                    
P  9 -14490.871988  22042.486802   1857.543030     34.765235                    
V  9   -570.025973  -3990.833215  32016.070877       .020229                    
P 10 -26105.466521   1913.731183   5329.934071     -9.429201                    
V 10  -6704.528980  -2954.821740 -30570.252986      -.006286                    
P 11  11245.436282 -23693.833042   2571.045712     10.657609                    
V 11   3698.226161   5223.983945  30070.988106      -.010977                    
P 12 -14516.393378  12111.208918 -18540.870385   -325.928991                    
V 12 -23615.770288  -2631.584154  16803.007794       .033041                    
P 13  -3607.099166 -24246.492400 -10357.833179    284.792960                    
V 13   6684.976279  11168.047779 -28782.656406       .014223                    
P 14  15740.801377  19476.332412  -8888.326959   -168.880700                    
V 14   3355.336568  11024.614803  29585.713028       .051801                    
P 15 -11786.502967  10151.537693  21556.108972   -241.493675                    
V 15 -13254.456031 -23884.786342   4050.032553      -.056268                    
P 16  26578.665545   2234.811155   -698.166230     82.315553                    
V 16  -1109.596528   2343.171930 -31745.448537      -.026601                    
P 17 -15309.419432 -20909.307200  -6201.251645     44.158002                    
V 17  -1206.113653  -8226.400338  30297.944781       .010003                    
P 18   7476.905359  15479.206981  20541.830660    -93.531959                    
V 18 -25573.429953  -1122.928013   9897.686007       .036777                    
P 19  11518.530195 -11074.200974  21246.898980     33.882440                    
V 19  11303.342331  24399.405318   6830.176654      -.004697                    
P 20  11304.676093 -13973.012621 -19662.837012     93.783810                    
V 20  24736.285431   1957.248989  12957.796282      -.010099                    
P 21    529.514399  20861.055269  16290.363793     34.074652                    
V 21 -13692.554745  15627.723755 -20460.881001      -.017391                    
P 22  18873.920161  12104.009469  14439.410011    206.686934                    
V 22 -18232.321392    934.218894  23245.369678      -.004581                    
P 23   3464.597943 -19546.796946 -17558.465489    384.977139                    
V 23  11630.662725  19074.693098 -19251.594138       .008123                    
P 24 -12491.721816  23178.773823   4606.181282    157.222799                    
V 24  -5566.910308   2958.285950 -30643.475704       .029689                    
P 25   7798.070093 -24779.448025   6346.268204    170.779062                    
V 25   5475.114547  -5671.814111 -30432.419642       .266186                    
P 26 -14608.684713   1957.314284  21642.205598     35.745291                    
V 26 -11744.421435 -26032.216152  -4939.596785       .034742                    
P 27 -10532.223965 -11874.196955  21980.451893     15.928037                    
V 27  13198.367430 -22715.514780  -6231.378056       .031043                    
P 28 -17239.034592 -12639.972599  16385.255053    -23.759893                    
V 28  19952.710981     23.812215  21231.716233       .001562                    
P 29   3181.563092  23956.208522 -10960.625623    -18.441251                    
V 29  -8397.018513 -11542.827264 -27376.534544       .027474                    
P 30   -391.573014  15591.412901 -21858.420004    119.527791                    
V 30 -26939.910710   -171.588991    449.459881       .023143                    
P 31  14123.701108   5372.096475 -21636.462530    -47.530287                    
V 31 -14777.632880  23721.688209  -3601.723770      -.015160                    
P 32  19184.200681  -8463.992403 -15750.107539    303.822093                    
V 32  20395.876328   4770.646037  21939.295195      -.026419                    
EOF
